{"type": "FeatureCollection", "features": [ {"type": "Feature", "properties": {"norad_id": 43262, "name": "GAOFEN-1 04", "group": "resource", "lat": -43.94087247296285, "lon": 43.15548649584375, "alt_km": 647.6138415457344, "timestamp": "2025-12-03T10:52:57.107462+00:00", "meta": {"OBJECT_NAME": "GAOFEN-1 04", "OBJECT_ID": "2018-031D", "EPOCH": "2025-12-03T04:34:39.160128", "MEAN_MOTION": 14.7641661, "ECCENTRICITY": 0.0001352, "INCLINATION": 98.0821, "RA_OF_ASC_NODE": 35.0219, "ARG_OF_PERICENTER": 62.4722, "MEAN_ANOMALY": 297.6625, "EPHEMERIS_TYPE": 0, "CLASSIFICATION_TYPE": "U", "NORAD_CAT_ID": 43262, "ELEMENT_SET_NO": 999, "REV_AT_EPOCH": 41376, "BSTAR": 0.00020119, "MEAN_MOTION_DOT": 1.347e-05, "MEAN_MOTION_DDOT": 0}, "tle": {"line1": "1 43262U 18031D   25337.19073102  .00001347  00000+0  20119-3 0  9993", "line2": "2 43262  98.0821  35.0219 0001352  62.4722 297.6625 14.76416610413765"}}, "geometry": {"type": "Point", "coordinates": [43.15548649584375, -43.94087247296285]}}, {"type": "Feature", "properties": {"norad_id": 43437, "name": "SENTINEL-3B", "group": "resource", "lat": -18.9970228293187, "lon": 45.76753701764427, "alt_km": 808.3734491853202, "timestamp": "2025-12-03T10:52:57.107472+00:00", "meta": {"OBJECT_NAME": "SENTINEL-3B", "OBJECT_ID": "2018-039A", "EPOCH": "2025-12-03T02:33:24.643008", "MEAN_MOTION": 14.26736632, "ECCENTRICITY": 0.000146, "INCLINATION": 98.628, "RA_OF_ASC_NODE": 42.4293, "ARG_OF_PERICENTER": 112.1017, "MEAN_ANOMALY": 248.0318, "EPHEMERIS_TYPE": 0, "CLASSIFICATION_TYPE": "U", "NORAD_CAT_ID": 43437, "ELEMENT_SET_NO": 999, "REV_AT_EPOCH": 39616, "BSTAR": 0.00010575, "MEAN_MOTION_DOT": 2.12e-06, "MEAN_MOTION_DDOT": 0}, "tle": {"line1": "1 43437U 18039A   25337.10653522  .00000212  00000+0  10575-3 0  9991", "line2": "2 43437  98.6280  42.4293 0001460 112.1017 248.0318 14.26736632396165"}}, "geometry": {"type": "Point", "coordinates": [45.76753701764427, -18.9970228293187]}}, {"type": "Feature", "properties": {"norad_id": 43461, "name": "GAOFEN-5 01", "group": "resource", "lat": -71.75065001891907, "lon": -33.00835062699364, "alt_km": 699.0679874715343, "timestamp": "2025-12-03T10:52:57.107483+00:00", "meta": {"OBJECT_NAME": "GAOFEN-5 01", "OBJECT_ID": "2018-043A", "EPOCH": "2025-12-03T04:38:32.252640", "MEAN_MOTION": 14.60391713, "ECCENTRICITY": 0.0001583, "INCLINATION": 98.4313, "RA_OF_ASC_NODE": 299.9949, "ARG_OF_PERICENTER": 10.8258, "MEAN_ANOMALY": 349.2976, "EPHEMERIS_TYPE": 0, "CLASSIFICATION_TYPE": "U", "NORAD_CAT_ID": 43461, "ELEMENT_SET_NO": 999, "REV_AT_EPOCH": 40308, "BSTAR": 0.00015197, "MEAN_MOTION_DOT": 6.87e-06, "MEAN_MOTION_DDOT": 0}, "tle": {"line1": "1 43461U 18043A   25337.19342885  .00000687  00000+0  15197-3 0  9990", "line2": "2 43461  98.4313 299.9949 0001583  10.8258 349.2976 14.60391713403080"}}, "geometry": {"type": "Point", "coordinates": [-33.00835062699364, -71.75065001891907]}}, {"type": "Feature", "properties": {"norad_id": 43484, "name": "GAOFEN-6", "group": "resource", "lat": 74.76888052724688, "lon": -107.72085326644098, "alt_km": 624.0174071120728, "timestamp": "2025-12-03T10:52:57.107493+00:00", "meta": {"OBJECT_NAME": "GAOFEN-6", "OBJECT_ID": "2018-048A", "EPOCH": "2025-12-03T03:54:44.976384", "MEAN_MOTION": 14.76535982, "ECCENTRICITY": 0.0013324, "INCLINATION": 97.8045, "RA_OF_ASC_NODE": 41.7512, "ARG_OF_PERICENTER": 91.9195, "MEAN_ANOMALY": 268.3541, "EPHEMERIS_TYPE": 0, "CLASSIFICATION_TYPE": "U", "NORAD_CAT_ID": 43484, "ELEMENT_SET_NO": 999, "REV_AT_EPOCH": 40446, "BSTAR": 7.8379e-05, "MEAN_MOTION_DOT": 4.98e-06, "MEAN_MOTION_DDOT": 0}, "tle": {"line1": "1 43484U 18048A   25337.16302056  .00000498  00000+0  78379-4 0  9995", "line2": "2 43484  97.8045  41.7512 0013324  91.9195 268.3541 14.76535982404462"}}, "geometry": {"type": "Point", "coordinates": [-107.72085326644098, 74.76888052724688]}}, {"type": "Feature", "properties": {"norad_id": 43585, "name": "GAOFEN-11 01", "group": "resource", "lat": 10.815644247725112, "lon": 39.092445132134344, "alt_km": 418.5648002284597, "timestamp": "2025-12-03T10:52:57.107508+00:00", "meta": {"OBJECT_NAME": "GAOFEN-11 01", "OBJECT_ID": "2018-063A", "EPOCH": "2025-12-03T04:37:59.719584", "MEAN_MOTION": 15.48806628, "ECCENTRICITY": 0.0004992, "INCLINATION": 97.1582, "RA_OF_ASC_NODE": 40.2101, "ARG_OF_PERICENTER": 354.6902, "MEAN_ANOMALY": 5.4295, "EPHEMERIS_TYPE": 0, "CLASSIFICATION_TYPE": "U", "NORAD_CAT_ID": 43585, "ELEMENT_SET_NO": 999, "REV_AT_EPOCH": 40994, "BSTAR": 0.00034384, "MEAN_MOTION_DOT": 0.00018415, "MEAN_MOTION_DDOT": 0}, "tle": {"line1": "1 43585U 18063A   25337.19305231  .00018415  00000+0  34384-3 0  9990", "line2": "2 43585  97.1582  40.2101 0004992 354.6902   5.4295 15.48806628409949"}}, "geometry": {"type": "Point", "coordinates": [39.092445132134344, 10.815644247725112]}}, {"type": "Feature", "properties": {"norad_id": 43613, "name": "ICESAT-2", "group": "resource", "lat": 83.11992293194965, "lon": -138.6532319749505, "alt_km": 473.5455283299443, "timestamp": "2025-12-03T10:52:57.107519+00:00", "meta": {"OBJECT_NAME": "ICESAT-2", "OBJECT_ID": "2018-070A", "EPOCH": "2025-12-03T04:13:57.618912", "MEAN_MOTION": 15.28214756, "ECCENTRICITY": 2.99e-05, "INCLINATION": 92.0056, "RA_OF_ASC_NODE": 238.1556, "ARG_OF_PERICENTER": 111.1358, "MEAN_ANOMALY": 248.9923, "EPHEMERIS_TYPE": 0, "CLASSIFICATION_TYPE": "U", "NORAD_CAT_ID": 43613, "ELEMENT_SET_NO": 999, "REV_AT_EPOCH": 40252, "BSTAR": 0.00070884, "MEAN_MOTION_DOT": 0.00019502, "MEAN_MOTION_DDOT": 0}, "tle": {"line1": "1 43613U 18070A   25337.17636133  .00019502  00000+0  70884-3 0  9999", "line2": "2 43613  92.0056 238.1556 0000299 111.1358 248.9923 15.28214756402522"}}, "geometry": {"type": "Point", "coordinates": [-138.6532319749505, 83.11992293194965]}}, {"type": "Feature", "properties": {"norad_id": 43719, "name": "HYSIS", "group": "resource", "lat": 67.58340141950761, "lon": 20.513462985414616, "alt_km": 626.0237157994443, "timestamp": "2025-12-03T10:52:57.107529+00:00", "meta": {"OBJECT_NAME": "HYSIS", "OBJECT_ID": "2018-096A", "EPOCH": "2025-12-03T04:04:30.459936", "MEAN_MOTION": 14.78598194, "ECCENTRICITY": 0.000164, "INCLINATION": 98.0112, "RA_OF_ASC_NODE": 40.194, "ARG_OF_PERICENTER": 67.21, "MEAN_ANOMALY": 292.9284, "EPHEMERIS_TYPE": 0, "CLASSIFICATION_TYPE": "U", "NORAD_CAT_ID": 43719, "ELEMENT_SET_NO": 999, "REV_AT_EPOCH": 37845, "BSTAR": 2.3814e-05, "MEAN_MOTION_DOT": 1.22e-06, "MEAN_MOTION_DDOT": 0}, "tle": {"line1": "1 43719U 18096A   25337.16979699  .00000122  00000+0  23814-4 0  9990", "line2": "2 43719  98.0112  40.1940 0001640  67.2100 292.9284 14.78598194378451"}}, "geometry": {"type": "Point", "coordinates": [20.513462985414616, 67.58340141950761]}}, {"type": "Feature", "properties": {"norad_id": 43783, "name": "KAZSTSAT", "group": "resource", "lat": -25.42886602012224, "lon": 16.607158005594847, "alt_km": 570.8023550147836, "timestamp": "2025-12-03T10:52:57.107540+00:00", "meta": {"OBJECT_NAME": "KAZSTSAT", "OBJECT_ID": "2018-099AB", "EPOCH": "2025-12-03T01:23:09.943008", "MEAN_MOTION": 14.99298184, "ECCENTRICITY": 0.0006551, "INCLINATION": 97.4552, "RA_OF_ASC_NODE": 12.659, "ARG_OF_PERICENTER": 5.7461, "MEAN_ANOMALY": 354.3837, "EPHEMERIS_TYPE": 0, "CLASSIFICATION_TYPE": "U", "NORAD_CAT_ID": 43783, "ELEMENT_SET_NO": 999, "REV_AT_EPOCH": 38191, "BSTAR": 0.00022261, "MEAN_MOTION_DOT": 2.663e-05, "MEAN_MOTION_DDOT": 0}, "tle": {"line1": "1 43783U 18099AB  25337.05775397  .00002663  00000+0  22261-3 0  9997", "line2": "2 43783  97.4552  12.6590 0006551   5.7461 354.3837 14.99298184381912"}}, "geometry": {"type": "Point", "coordinates": [16.607158005594847, -25.42886602012224]}}, {"type": "Feature", "properties": {"norad_id": 43831, "name": "SAUDISAT 5A", "group": "resource", "lat": -51.02414604222329, "lon": -151.33915356090412, "alt_km": 501.2108114218863, "timestamp": "2025-12-03T10:52:57.107551+00:00", "meta": {"OBJECT_NAME": "SAUDISAT 5A", "OBJECT_ID": "2018-102A", "EPOCH": "2025-12-03T05:08:55.397184", "MEAN_MOTION": 15.25466618, "ECCENTRICITY": 0.001178, "INCLINATION": 97.3374, "RA_OF_ASC_NODE": 37.5906, "ARG_OF_PERICENTER": 105.4454, "MEAN_ANOMALY": 254.8086, "EPHEMERIS_TYPE": 0, "CLASSIFICATION_TYPE": "U", "NORAD_CAT_ID": 43831, "ELEMENT_SET_NO": 999, "REV_AT_EPOCH": 38577, "BSTAR": 0.00033982, "MEAN_MOTION_DOT": 8.546e-05, "MEAN_MOTION_DDOT": 0}, "tle": {"line1": "1 43831U 18102A   25337.21453006  .00008546  00000+0  33982-3 0  9992", "line2": "2 43831  97.3374  37.5906 0011780 105.4454 254.8086 15.25466618385771"}}, "geometry": {"type": "Point", "coordinates": [-151.33915356090412, -51.02414604222329]}}, {"type": "Feature", "properties": {"norad_id": 43833, "name": "SAUDISAT 5B", "group": "resource", "lat": -82.42183655355845, "lon": 116.4345995807317, "alt_km": 503.91619740971055, "timestamp": "2025-12-03T10:52:57.107562+00:00", "meta": {"OBJECT_NAME": "SAUDISAT 5B", "OBJECT_ID": "2018-102C", "EPOCH": "2025-12-03T04:58:24.652128", "MEAN_MOTION": 15.25824055, "ECCENTRICITY": 0.0012445, "INCLINATION": 97.3469, "RA_OF_ASC_NODE": 40.3049, "ARG_OF_PERICENTER": 108.0091, "MEAN_ANOMALY": 252.2505, "EPHEMERIS_TYPE": 0, "CLASSIFICATION_TYPE": "U", "NORAD_CAT_ID": 43833, "ELEMENT_SET_NO": 999, "REV_AT_EPOCH": 38588, "BSTAR": 0.00033439, "MEAN_MOTION_DOT": 8.501e-05, "MEAN_MOTION_DDOT": 0}, "tle": {"line1": "1 43833U 18102C   25337.20722977  .00008501  00000+0  33439-3 0  9997", "line2": "2 43833  97.3469  40.3049 0012445 108.0091 252.2505 15.25824055385886"}}, "geometry": {"type": "Point", "coordinates": [116.4345995807317, -82.42183655355845]}}]}